{"type": "FeatureCollection", "features": [{"type": "Feature", "properties": {"id": 69, "barrio": 2893}, "geometry": {"type": "Polygon", "coordinates": [[[-58.18118724945261, -26.14136197907268], [-58.1751340014742, -26.13941532446417], [-58.17306443658074, -26.13873617710538], [-58.17170669269726, -26.13830920854329], [-58.17265973900578, -26.13586319425557], [-58.17734398093657, -26.13737461157732], [-58.17993022075233, -26.13821168274155], [-58.18217607807244, -26.13895194468147], [-58.18118724945261, -26.14136197907268]]]}}, {"type": "Feature", "properties": {"id": 8, "barrio": 2895}, "geometry": {"type": "Polygon", "coordinates": [[[-58.17761, -26.176636], [-58.168451, -26.173754], [-58.170028, -26.169787], [-58.180776, -26.167216]]]}}, {"type": "Feature", "properties": {"id": 29, "barrio": 2904}, "geometry": {"type": "Polygon", "coordinates": [[[-58.20510429112353, -26.175901407839], [-58.20433561979243, -26.17788721894816], [-58.20319795512188, -26.17751533641434], [-58.20220371538626, -26.18003646792744], [-58.19856208645771, -26.17885367206006], [-58.20035539294204, -26.17440731125325], [-58.20042526356121, -26.17438881169245], [-58.20510429112353, -26.175901407839]]]}}, {"type": "Feature", "properties": {"id": 3, "barrio": 2913}, "geometry": {"type": "Polygon", "coordinates": [[[-58.18357204861403, -26.18809223837292], [-58.17892120465042, -26.18660226490843], [-58.1757020437376, -26.1855627248959], [-58.17612735826276, -26.18453016702989], [-58.17497410779023, -26.1841487776329], [-58.17784873097942, -26.17707192834325], [-58.18679012692682, -26.18000609218418], [-58.18357204861403, -26.18809223837292]]]}}, {"type": "Feature", "properties": {"id": 196, "barrio": 2923}, "geometry": {"type": "Polygon", "coordinates": [[[-58.28804902688106, -26.22627530750001], [-58.28604534124033, -26.22569303722428], [-58.28571725597295, -26.22648113044848], [-58.28386365060586, -26.22587023024104], [-58.28483226121175, -26.22340320587966], [-58.2856010229812, -26.22146709853116], [-58.28939689776768, -26.22271565089341], [-58.28804902688106, -26.22627530750001]]]}}, {"type": "Feature", "properties": {"id": 10, "barrio": 2945}, "geometry": {"type": "Polygon", "coordinates": [[[-58.19422289347646, -26.18934149987477], [-58.19347307755866, -26.19123795100828], [-58.19146733953342, -26.1905475450421], [-58.19135741346538, -26.19059892467704], [-58.19129664125834, -26.19062152014651], [-58.18839941796601, -26.18969047518949], [-58.19082465527433, -26.1836311047616], [-58.19189791558343, -26.18397941262015], [-58.1914920564835, -26.18499898794966], [-58.19335655377365, -26.18561700805461], [-58.19294864353088, -26.18662501240778], [-58.1950226252582, -26.18730092617417], [-58.19422289347646, -26.18934149987477]]]}}, {"type": "Feature", "properties": {"id": 46, "barrio": 2946}, "geometry": {"type": "Polygon", "coordinates": [[[-58.18229890664994, -26.16341508793525], [-58.18223597946078, -26.16344632257255], [-58.18114510587787, -26.16307476883196], [-58.17993266524802, -26.16269813193164], [-58.17840979022941, -26.1622122646525], [-58.17725745676435, -26.16185077556424], [-58.17823736631653, -26.1597370648268], [-58.17633602287538, -26.159120312617], [-58.17472373907884, -26.15860420995296], [-58.1744463738998, -26.15851119560277], [-58.17534175563986, -26.15636443015438], [-58.17642214049277, -26.15670781960079], [-58.18104023546994, -26.15819435991175], [-58.18237842412684, -26.15863725954998], [-58.18393805453396, -26.15913873420853], [-58.18229890664994, -26.16341508793525]]]}}, {"type": "Feature", "properties": {"id": 64, "barrio": 2947}, "geometry": {"type": "Polygon", "coordinates": [[[-58.18095950478204, -26.16688508131452], [-58.18079983066547, -26.16692372125529], [-58.18012924752396, -26.16704076647903], [-58.17994823695974, -26.16708966316918], [-58.17963451681504, -26.1671629184591], [-58.17912101165742, -26.16726084329028], [-58.17886353297979, -26.16725909845314], [-58.17860455771297, -26.16718798180107], [-58.17821563467175, -26.16706221161723], [-58.1774080931201, -26.16679564249077], [-58.17672360640566, -26.16657357980271], [-58.17683895917564, -26.16625181652222], [-58.17709127495711, -26.16563472487657], [-58.17737613082262, -26.16488926366089], [-58.17760026706282, -26.16438284571128], [-58.17763953650026, -26.16436342789476], [-58.17845311864831, -26.16461924265986], [-58.17985787519982, -26.16507498041404], [-58.18074618700901, -26.16537316077668], [-58.18145331901572, -26.16561821413568], [-58.18095950478204, -26.16688508131452]]]}}, {"type": "Feature", "properties": {"id": 65, "barrio": 2948}, "geometry": {"type": "Polygon", "coordinates": [[[-58.17316805901341, -26.16861318065065], [-58.1731180029163, -26.16868879676051], [-58.17019519321562, -26.16925539004797], [-58.17181863715619, -26.16508525386149], [-58.17192436912527, -26.16503651658144], [-58.17325621366517, -26.16550538483556], [-58.17316805901341, -26.16861318065065]]]}}, {"type": "Feature", "properties": {"id": 47, "barrio": 2949}, "geometry": {"type": "Polygon", "coordinates": [[[-58.17550715555326, -26.15632827256561], [-58.17539709030218, -26.15625655015882], [-58.175433907836, -26.15610562685548], [-58.17587017858663, -26.15500757496807], [-58.17618363142307, -26.15454220461657], [-58.17659350988183, -26.15418831229282], [-58.17750626884354, -26.15328629044551], [-58.1777444097877, -26.15303899874149], [-58.18010171058817, -26.15370294051022], [-58.18046292512948, -26.15281226977402], [-58.18036450183523, -26.15213913656824], [-58.17990689064813, -26.15164793269173], [-58.18033757811295, -26.15082232956037], [-58.18124838482974, -26.15113579431338], [-58.18175880530951, -26.15095822455062], [-58.18327406639295, -26.15128954750807], [-58.18441372020773, -26.15167911037615], [-58.18452257278317, -26.15170307155206], [-58.18490647609988, -26.15193660435086], [-58.18510778597359, -26.15230314609053], [-58.18521166023212, -26.15239758409809], [-58.18586845270005, -26.15261305968924], [-58.18612705008805, -26.15273873539357], [-58.18620469869579, -26.1530317478511], [-58.18583650984115, -26.15396278670804], [-58.18554549764596, -26.15487189919478], [-58.18537817345432, -26.15540625146882], [-58.18524385620022, -26.15578236728709], [-58.18483891884058, -26.15682589055592], [-58.18458618965821, -26.15755606197651], [-58.18416885615987, -26.15854472763227], [-58.18396450407622, -26.15906910932338], [-58.17550715555326, -26.15632827256561]]]}}, {"type": "Feature", "properties": {"id": 15, "barrio": 2950}, "geometry": {"type": "Polygon", "coordinates": [[[-58.22026642788653, -26.20045632257467], [-58.22032450259373, -26.20080806559099], [-58.22017463421312, -26.20137460218021], [-58.21965581730019, -26.20196662468099], [-58.21905616596877, -26.2020564560669], [-58.21827200228615, -26.20141141144088], [-58.21775905239699, -26.20124097442005], [-58.21741341437511, -26.20160656325109], [-58.21716925288908, -26.20188527416151], [-58.21685702231786, -26.20505034119741], [-58.21557527739538, -26.20809837859085], [-58.21520469605208, -26.20816402961542], [-58.20913443803458, -26.20614230354711], [-58.21236290965109, -26.19816451372113], [-58.21257881613269, -26.19809497986021], [-58.21343092002801, -26.19841378703635], [-58.21416943700417, -26.19846860085472], [-58.2151493104784, -26.19872968515744], [-58.21878226986409, -26.19992364694227], [-58.22026642788653, -26.20045632257467]]]}}, {"type": "Feature", "properties": {"id": 17, "barrio": 2951}, "geometry": {"type": "Polygon", "coordinates": [[[-58.19251407669717, -26.17923585383036], [-58.19138665969433, -26.17885920271528], [-58.19056191693944, -26.18090568894046], [-58.18724388970166, -26.17979285297025], [-58.19072943895964, -26.17122559716007], [-58.19513893209764, -26.17266282140473], [-58.19251407669717, -26.17923585383036]]]}}, {"type": "Feature", "properties": {"id": 7, "barrio": 2952}, "geometry": {"type": "Polygon", "coordinates": [[[-58.20281744167493, -26.19484192834181], [-58.20289957581804, -26.19483992207212], [-58.20305226215691, -26.19494687680929], [-58.21179376381662, -26.19776756611013], [-58.21208582284795, -26.19792654811732], [-58.2122517737219, -26.19808952546968], [-58.21152994109756, -26.19988980374233], [-58.20915509578251, -26.20592360411705], [-58.20801097118864, -26.20556686471844], [-58.20604882013635, -26.20494637638572], [-58.20406958559808, -26.20430995094438], [-58.20236881297379, -26.20378509410568], [-58.19954651371926, -26.20286986659679], [-58.2003662982484, -26.20085685366538], [-58.20085768324639, -26.19970511260382], [-58.20278394187938, -26.19486007895333], [-58.20281744167493, -26.19484192834181]]]}}, {"type": "Feature", "properties": {"id": 14, "barrio": 2953}, "geometry": {"type": "Polygon", "coordinates": [[[-58.17851666416281, -26.20156495181545], [-58.17495584695584, -26.20053652276704], [-58.17485339734381, -26.20018869489647], [-58.17380130462218, -26.19987107936507], [-58.17564400394575, -26.19535239354336], [-58.1802831607022, -26.1968549456539], [-58.17851666416281, -26.2015649518154]]]}}, {"type": "Feature", "properties": {"id": 117, "barrio": 2954}, "geometry": {"type": "Polygon", "coordinates": [[[-58.19345741749216, -26.17050696882675], [-58.19134771946041, -26.1698506554343], [-58.19161688569358, -26.16917104762179], [-58.19372192368815, -26.16986988719035], [-58.19345741749216, -26.17050696882675]]]}}, {"type": "Feature", "properties": {"id": 96, "barrio": 2956}, "geometry": {"type": "Polygon", "coordinates": [[[-58.28194009868272, -26.26905482277718], [-58.27848013474851, -26.27795550298387], [-58.27475940365747, -26.27361629790499], [-58.27714515362257, -26.26746537960615], [-58.28194009868272, -26.26905482277718]]]}}, {"type": "Feature", "properties": {"id": 86, "barrio": 2957}, "geometry": {"type": "Polygon", "coordinates": [[[-58.16837014442946, -26.17355961185255], [-58.16810634472816, -26.17340085001109], [-58.16719974069088, -26.17321726502736], [-58.16689546511784, -26.17301238148464], [-58.1668228208119, -26.17260570494405], [-58.16678486604798, -26.17115601614178], [-58.16662179741691, -26.16985448345368], [-58.17009149754883, -26.16930182155343], [-58.16837014442946, -26.17355961185255]]]}}, {"type": "Feature", "properties": {"id": 120, "barrio": 2958}, "geometry": {"type": "Polygon", "coordinates": [[[-58.17594780730008, -26.15473166277731], [-58.17533149905245, -26.15625376404664], [-58.17306150225356, -26.15552547230106], [-58.17349461881689, -26.15448485899871], [-58.17358842916628, -26.15434042296113], [-58.17429972693397, -26.15440219670758], [-58.17465167601926, -26.15444983806505], [-58.17594780730008, -26.15473166277731]]]}}, {"type": "Feature", "properties": {"id": 39, "barrio": 2960}, "geometry": {"type": "Polygon", "coordinates": [[[-58.19736957337935, -26.16914835332549], [-58.20162134038909, -26.17056065044667], [-58.2014021053865, -26.17109791932311], [-58.2013413500763, -26.17113273605046], [-58.20061217995931, -26.17088950909976], [-58.19712451584073, -26.16974267888102], [-58.19736957337935, -26.16914835332549]]]}}, {"type": "Feature", "properties": {"id": 91, "barrio": 2961}, "geometry": {"type": "Polygon", "coordinates": [[[-58.16878861731721, -26.13382985797018], [-58.1686456974005, -26.13393429229982], [-58.16338166152418, -26.13234779435912], [-58.16063745479855, -26.13150475174788], [-58.16143688736359, -26.12945264147194], [-58.1694096935737, -26.13188743668941], [-58.16878861731721, -26.13382985797018]]]}}, {"type": "Feature", "properties": {"id": 203, "barrio": 2968}, "geometry": {"type": "Polygon", "coordinates": [[[-58.20035749536648, -26.17318674788493], [-58.20052568463814, -26.17326725216105], [-58.20013450509183, -26.17420048447769], [-58.19826271135138, -26.17358733431658], [-58.19864523288626, -26.17259386859156], [-58.20035749536648, -26.17318674788493]]]}}, {"type": "Feature", "properties": {"id": 36, "barrio": 2971}, "geometry": {"type": "Polygon", "coordinates": [[[-58.19557902921699, -26.18025267471487], [-58.19636664942171, -26.17826105471014], [-58.19816794296015, -26.17887798100349], [-58.19742960436457, -26.18084664423397], [-58.19557902921699, -26.18025267471487]]]}}, {"type": "Feature", "properties": {"id": 190, "barrio": 2973}, "geometry": {"type": "Polygon", "coordinates": [[[-58.19536965946512, -26.16774631484034], [-58.19541686732086, -26.16762644244751], [-58.19544736525625, -26.16763530850085], [-58.19568226645241, -26.16703826729684], [-58.197209773185, -26.1675295518605], [-58.19644297983423, -26.16952017879963], [-58.19422065891052, -26.1688019176392], [-58.19473110080195, -26.16754162287894], [-58.19536965946512, -26.16774631484034]]]}}, {"type": "Feature", "properties": {"id": 191, "barrio": 2974}, "geometry": {"type": "Polygon", "coordinates": [[[-58.19965750227112, -26.16990868547856], [-58.19736997901023, -26.16914882466925], [-58.19712504217061, -26.16974169807919], [-58.19648350647478, -26.16953409030478], [-58.19725204286817, -26.16754378086975], [-58.20021741647805, -26.16851000164316], [-58.19965750227112, -26.16990868547856]]]}}, {"type": "Feature", "properties": {"id": 111, "barrio": 2980}, "geometry": {"type": "Polygon", "coordinates": [[[-58.20834785946062, -26.21283827905743], [-58.20838507305409, -26.21299337606165], [-58.20813379576147, -26.21337265422132], [-58.20796533111042, -26.21397409366828], [-58.20842582617523, -26.21461805226847], [-58.20846666687381, -26.21496915055425], [-58.20823533654191, -26.21536599799527], [-58.20793014146836, -26.21558634838296], [-58.20576415446748, -26.21485007287149], [-58.20673207282432, -26.21225708057504], [-58.20834785946062, -26.21283827905743]]]}}, {"type": "Feature", "properties": {"id": 97, "barrio": 2996}, "geometry": {"type": "Polygon", "coordinates": [[[-58.22936363850103, -26.20983914430874], [-58.22397402829168, -26.20177522807295], [-58.22396344178518, -26.20170663717193], [-58.22446873229203, -26.20159379236348], [-58.23173196366069, -26.20395260413892], [-58.22936363850103, -26.20983914430874]]]}}, {"type": "Feature", "properties": {"id": 61, "barrio": 3015}, "geometry": {"type": "Polygon", "coordinates": [[[-58.19347984547171, -26.16433173742269], [-58.19359157467896, -26.16400106230903], [-58.19404747374016, -26.16283526244623], [-58.19429556919656, -26.16224749854588], [-58.19459565620131, -26.16150350510839], [-58.19472611368708, -26.16146393215643], [-58.19506420716935, -26.16162380551745], [-58.19548227259222, -26.16188256657004], [-58.19580887021133, -26.1621055279397], [-58.19620482327106, -26.16239848616771], [-58.19675637351394, -26.16289869659181], [-58.19692258948717, -26.16308058948712], [-58.19726763071785, -26.16345691195294], [-58.19690999803215, -26.16358558519189], [-58.19347984547171, -26.16433173742269]]]}}, {"type": "Feature", "properties": {"id": 59, "barrio": 3023}, "geometry": {"type": "Polygon", "coordinates": [[[-58.22564771361582, -26.19226695030825], [-58.22912714508642, -26.18347260362711], [-58.23870611501775, -26.18669685194621], [-58.23714223734672, -26.19055094355964], [-58.23517423063803, -26.19536581928444], [-58.22564771361582, -26.19226695030825]]]}}, {"type": "Feature", "properties": {"id": 99, "barrio": 3040}, "geometry": {"type": "Polygon", "coordinates": [[[-58.19170243206262, -26.18127099564641], [-58.19062846099608, -26.18092254914358], [-58.19141640426408, -26.17895145705225], [-58.19248469943334, -26.17931149500008], [-58.19170243206262, -26.18127099564641]]]}}, {"type": "Feature", "properties": {"id": 75, "barrio": 3041}, "geometry": {"type": "Polygon", "coordinates": [[[-58.22464966983999, -26.19446946171643], [-58.2237565984156, -26.19646013713327], [-58.21513197179074, -26.19368109447704], [-58.21557658148506, -26.19258280162831], [-58.21580314124989, -26.19171868616067], [-58.21583528708872, -26.19162461341525], [-58.21589555226507, -26.19159921818979], [-58.2161444421746, -26.19167104433403], [-58.21655473321981, -26.19062625821639], [-58.21859020225138, -26.1912923879035], [-58.21901712798542, -26.19024062350049], [-58.22548045091769, -26.19233167021625], [-58.22464966983999, -26.19446946171643]]]}}, {"type": "Feature", "properties": {"id": 24, "barrio": 3042}, "geometry": {"type": "Polygon", "coordinates": [[[-58.21320123347368, -26.18599568019745], [-58.21339005360936, -26.18618264046001], [-58.21382098282887, -26.1869683391624], [-58.21426326525398, -26.18786523872416], [-58.21460359979255, -26.18871748232344], [-58.21220388869665, -26.18793573094497], [-58.20914673331444, -26.18694024276111], [-58.20993893134462, -26.18493089364018], [-58.21320123347368, -26.18599568019745]]]}}, {"type": "Feature", "properties": {"id": 38, "barrio": 3043}, "geometry": {"type": "Polygon", "coordinates": [[[-58.19860060846973, -26.17253817076421], [-58.19564448922159, -26.17157097633928], [-58.1964562645895, -26.16959093766809], [-58.19939078292907, -26.1705634394453], [-58.19860060846973, -26.17253817076421]]]}}, {"type": "Feature", "properties": {"id": 6, "barrio": 3045}, "geometry": {"type": "Polygon", "coordinates": [[[-58.19960231799722, -26.20247551116704], [-58.199327856538, -26.20280150949823], [-58.19751247015515, -26.20221616849095], [-58.19015985943082, -26.19981308254005], [-58.1934386537235, -26.1916336626627], [-58.20090805822138, -26.1940720426379], [-58.20248484206478, -26.19458527602849], [-58.20262329342857, -26.19464598642239], [-58.20269270568563, -26.19471629039714], [-58.19960231799722, -26.20247551116704]]]}}, {"type": "Feature", "properties": {"id": 44, "barrio": 3046}, "geometry": {"type": "Polygon", "coordinates": [[[-58.19312863855193, -26.16457115635512], [-58.19314924947276, -26.16458792377221], [-58.1931738050143, -26.1646282967227], [-58.1931701874076, -26.16467661806561], [-58.19263256298251, -26.16607421233911], [-58.19220623100711, -26.16711892306215], [-58.19139800815961, -26.16911900138418], [-58.19119542308732, -26.16964496456797], [-58.19065223749135, -26.17101584607542], [-58.19061671125476, -26.17104888994282], [-58.19054791456554, -26.17105716785095], [-58.19006623956112, -26.1709160490261], [-58.18943351465129, -26.17068239109385], [-58.18923245197033, -26.170622174143], [-58.18880262950857, -26.17048515738307], [-58.18719924724098, -26.16995491216111], [-58.18638515532263, -26.16968191460714], [-58.18583672421987, -26.16949898771944], [-58.18418317822952, -26.16896845280255], [-58.18245064416765, -26.16841384948529], [-58.18189063592759, -26.16821098587748], [-58.18171223848098, -26.16767916220313], [-58.18168265424571, -26.16753354727828], [-58.18188473093052, -26.16704489743749], [-58.1832360602562, -26.16673250080627], [-58.18464364711057, -26.16642465422077], [-58.18595341688746, -26.1661442461663], [-58.18868984904016, -26.16555265638162], [-58.18886230967255, -26.16552623883979], [-58.19011752153179, -26.16523744495637], [-58.19126779537745, -26.16495641730516], [-58.1921018853061, -26.16476323905667], [-58.19309136883254, -26.16456123209656], [-58.19312863855193, -26.16457115635512]]]}}, {"type": "Feature", "properties": {"id": 194, "barrio": 3048}, "geometry": {"type": "Polygon", "coordinates": [[[-58.28172970545254, -26.22017125568896], [-58.28245848564321, -26.21824118932884], [-58.28387545111004, -26.21867481497278], [-58.28402950113629, -26.21837195816681], [-58.28436637009484, -26.21851051597226], [-58.28683004546798, -26.21948561651837], [-58.2860154147289, -26.22149871388059], [-58.28172970545254, -26.22017125568896]]]}}, {"type": "Feature", "properties": {"id": 114, "barrio": 3052}, "geometry": {"type": "Polygon", "coordinates": [[[-58.18226176914007, -26.16352866424811], [-58.18147413994591, -26.16554012868125], [-58.1790134412183, -26.16470995327824], [-58.17982489973426, -26.16272108558991], [-58.18226176914007, -26.16352866424811]]]}}, {"type": "Feature", "properties": {"id": 204, "barrio": 3059}, "geometry": {"type": "Polygon", "coordinates": [[[-58.19819271137217, -26.1735635905459], [-58.1952454698741, -26.17259482876015], [-58.19562822978824, -26.17162494823826], [-58.19858195714694, -26.17257841575074], [-58.19819271137217, -26.1735635905459]]]}}, {"type": "Feature", "properties": {"id": 98, "barrio": 3065}, "geometry": {"type": "Polygon", "coordinates": [[[-58.17120918888661, -26.13915298044491], [-58.16936415741112, -26.13855479694288], [-58.17005426199732, -26.13688959587982], [-58.17184781677901, -26.13744113553064], [-58.17120918888661, -26.13915298044491]]]}}, {"type": "Feature", "properties": {"id": 94, "barrio": 3066}, "geometry": {"type": "Polygon", "coordinates": [[[-58.26354177768548, -26.25698458173378], [-58.26517641242781, -26.25892014773818], [-58.26712776804629, -26.25886753445213], [-58.26822603631969, -26.2595371599363], [-58.2665711639264, -26.26098380753396], [-58.26638384439963, -26.26218383365144], [-58.26795524410166, -26.26249648927436], [-58.26692111546523, -26.26317176815021], [-58.26276182085953, -26.26520662638298], [-58.26243806340892, -26.26562737447196], [-58.26347997193235, -26.26648326077251], [-58.26516813407461, -26.2665678050331], [-58.26420636368409, -26.26705653563427], [-58.26014486342903, -26.26610225431995], [-58.26265848170237, -26.25659986715933], [-58.26354177768548, -26.25698458173378]]]}}, {"type": "Feature", "properties": {"id": 53, "barrio": 3069}, "geometry": {"type": "Polygon", "coordinates": [[[-58.16188545199286, -26.15190158628044], [-58.15605935198229, -26.15001249072207], [-58.15952054595899, -26.14150190562578], [-58.159636563441, -26.14146083209345], [-58.16061633558552, -26.14178189832161], [-58.16411444405031, -26.13307001916826], [-58.1687547573446, -26.13458638508124], [-58.16188545199286, -26.15190158628044]]]}}, {"type": "Feature", "properties": {"id": 58, "barrio": 3072}, "geometry": {"type": "Polygon", "coordinates": [[[-58.18997005333142, -26.19986592321803], [-58.18982517461552, -26.20021154787334], [-58.18836360634992, -26.19986155743422], [-58.18533794482477, -26.20031050015436], [-58.18154666949474, -26.20120249886425], [-58.17861153281431, -26.2014694140188], [-58.18041761589616, -26.19684974761708], [-58.18997005333142, -26.19986592321803]]]}}, {"type": "Feature", "properties": {"id": 60, "barrio": 3075}, "geometry": {"type": "Polygon", "coordinates": [[[-58.20233137111275, -26.16926023582317], [-58.20236344343446, -26.16919509772736], [-58.20241356900544, -26.16914009434699], [-58.20247073142053, -26.16913547215332], [-58.20253823212769, -26.16913951093438], [-58.20264058263602, -26.16923359501389], [-58.20368863872318, -26.17023111846666], [-58.20421269249003, -26.17080533977854], [-58.2047918061177, -26.17141186955221], [-58.20534684359596, -26.17203501209265], [-58.20558245165461, -26.17235133243817], [-58.20629309266398, -26.17342563242894], [-58.20726727298727, -26.17517755835244], [-58.20790150218102, -26.17640000673824], [-58.20799975712392, -26.17659259271667], [-58.20797931119015, -26.17664175698726], [-58.20795680930394, -26.17666200317404], [-58.20789346078106, -26.17667950860738], [-58.20039258448932, -26.17424211556708], [-58.20233137111275, -26.16926023582317]]]}}, {"type": "Feature", "properties": {"id": 26, "barrio": 3076}, "geometry": {"type": "Polygon", "coordinates": [[[-58.20897226384631, -26.18689747881237], [-58.20628941110618, -26.18601984579831], [-58.20710684195979, -26.18403174923125], [-58.20806370631638, -26.18433128038604], [-58.20887364431948, -26.18230066012493], [-58.20973881002962, -26.18258069407671], [-58.20893879144776, -26.18461755207236], [-58.20977070607299, -26.18488369404299], [-58.20897226384631, -26.18689747881237]]]}}, {"type": "Feature", "properties": {"id": 57, "barrio": 3080}, "geometry": {"type": "Polygon", "coordinates": [[[-58.16837759893204, -26.19997568483452], [-58.16778134349342, -26.20054850478903], [-58.1659083668141, -26.20008290348939], [-58.16521174956112, -26.20174729634438], [-58.16236781510763, -26.20083189626978], [-58.16382499641829, -26.19581979975525], [-58.16527866605634, -26.19451442870041], [-58.16563480763391, -26.19362553894737], [-58.16518850045554, -26.19336970242295], [-58.16518003414979, -26.19288938235544], [-58.1642125271124, -26.19222027945283], [-58.16216098944888, -26.19144217743135], [-58.16146206060884, -26.19152572499174], [-58.16018843852104, -26.1914448471682], [-58.16066904353368, -26.19045148781522], [-58.16219636738796, -26.19095849899045], [-58.16381616307161, -26.1914580786102], [-58.16452518497433, -26.19159577874538], [-58.16579853162443, -26.1919980702572], [-58.16667510953309, -26.19228296876788], [-58.1678937186873, -26.19281461052373], [-58.16921834830351, -26.19325772736731], [-58.17073351966783, -26.19374537407969], [-58.16837759893204, -26.19997568483452]]]}}, {"type": "Feature", "properties": {"id": 118, "barrio": 3091}, "geometry": {"type": "Polygon", "coordinates": [[[-58.1989949186155, -26.14734093739968], [-58.19640697386923, -26.14651044059741], [-58.19628662374231, -26.14618148198851], [-58.19559511037392, -26.14592875180717], [-58.19648552365955, -26.14356683806961], [-58.20001758144559, -26.1447244396497], [-58.1989949186155, -26.14734093739968]]]}}, {"type": "Feature", "properties": {"id": 72, "barrio": 3104}, "geometry": {"type": "Polygon", "coordinates": [[[-58.23935844980641, -26.18454628684951], [-58.23760200177374, -26.1840758205576], [-58.23684166644198, -26.18580294250144], [-58.22915214485965, -26.18332817929215], [-58.23259944277356, -26.17510091080106], [-58.24188582268562, -26.178134271209], [-58.23935844980641, -26.18454628684951]]]}}, {"type": "Feature", "properties": {"id": 23, "barrio": 3112}, "geometry": {"type": "Polygon", "coordinates": [[[-58.2049257380622, -26.18915678902262], [-58.20450181970082, -26.19021259441634], [-58.20224729726031, -26.18948241961892], [-58.20264810306109, -26.18843293300749], [-58.20013903722344, -26.18760997449213], [-58.20043751649884, -26.18692435492596], [-58.20284546148588, -26.18771014362601], [-58.20258694458259, -26.18841137478626], [-58.20275332576912, -26.18847938778596], [-58.2049257380622, -26.18915678902262]]]}}, {"type": "Feature", "properties": {"id": 74, "barrio": 3113}, "geometry": {"type": "Polygon", "coordinates": [[[-58.19039192929519, -26.15611358135008], [-58.19000350288266, -26.1570675047812], [-58.19371600046678, -26.15829184198619], [-58.19338068490652, -26.15935291718073], [-58.19462513271198, -26.15985280504426], [-58.19447375176048, -26.16025879518415], [-58.18777380202887, -26.15758511797575], [-58.18663058814777, -26.15711591717393], [-58.18608454825437, -26.15691146021396], [-58.18600723871984, -26.15678591746362], [-58.18602100180551, -26.15661315195474], [-58.18630417178151, -26.15600113018037], [-58.18644118409078, -26.15594165621985], [-58.18694686584862, -26.15489866447631], [-58.18846659582565, -26.15525486063379], [-58.18903924275456, -26.15524467428492], [-58.18908027010152, -26.15528007206531], [-58.18894800321524, -26.1556295840692], [-58.19039192929519, -26.15611358135008]]]}}, {"type": "Feature", "properties": {"id": 189, "barrio": 3114}, "geometry": {"type": "Polygon", "coordinates": [[[-58.19172164309789, -26.1956591047923], [-58.18214710633577, -26.19255362465793], [-58.1837754375119, -26.1884921340857], [-58.1933065762848, -26.19158881898509], [-58.19172164309789, -26.1956591047923]]]}}, {"type": "Feature", "properties": {"id": 25, "barrio": 3116}, "geometry": {"type": "Polygon", "coordinates": [[[-58.20621203753866, -26.18599370870957], [-58.20390611804179, -26.18525177919501], [-58.20187822214223, -26.18459773625361], [-58.20179917636366, -26.18457455947079], [-58.201762212207, -26.184530442792], [-58.20294606537496, -26.18152913090949], [-58.20514492569896, -26.18222606579786], [-58.20472910904098, -26.1832569226227], [-58.20704430313301, -26.18400198389065], [-58.20621203753866, -26.18599370870957]]]}}, {"type": "Feature", "properties": {"id": 116, "barrio": 3117}, "geometry": {"type": "Polygon", "coordinates": [[[-58.19639634817972, -26.16956999639433], [-58.1959813776184, -26.17055627480794], [-58.19590411888463, -26.17074440111258], [-58.19454751274181, -26.17032619962603], [-58.19482945352277, -26.16960293052619], [-58.19400923240364, -26.1693316212343], [-58.19419355857092, -26.16886849465795], [-58.19639634817972, -26.16956999639433]]]}}, {"type": "Feature", "properties": {"id": 11, "barrio": 3118}, "geometry": {"type": "Polygon", "coordinates": [[[-58.19305193856616, -26.18659452391082], [-58.1938747581752, -26.1845464687288], [-58.19084214063781, -26.18358678105991], [-58.19164344930995, -26.18161860763071], [-58.19661452676138, -26.1832351795579], [-58.1950500092211, -26.18723780948621], [-58.19305193856616, -26.18659452391082]]]}}, {"type": "Feature", "properties": {"id": 95, "barrio": 3119}, "geometry": {"type": "Polygon", "coordinates": [[[-58.27466142264672, -26.28082211396857], [-58.27159502487508, -26.280298766168], [-58.26962492475455, -26.27975584121388], [-58.26796402830809, -26.27685673821397], [-58.26953285879756, -26.27646801687756], [-58.27205160884058, -26.27576818439674], [-58.27470453361816, -26.27490015547415], [-58.27809863246857, -26.27900563083497], [-58.27466142264672, -26.28082211396857]]]}}, {"type": "Feature", "properties": {"id": 4, "barrio": 3120}, "geometry": {"type": "Polygon", "coordinates": [[[-58.19172164309789, -26.1956591047923], [-58.18214710633577, -26.19255362465793], [-58.1837754375119, -26.1884921340857], [-58.1933065762848, -26.19158881898509], [-58.19172164309789, -26.1956591047923]]]}}, {"type": "Feature", "properties": {"id": 63, "barrio": 3121}, "geometry": {"type": "Polygon", "coordinates": [[[-58.19554120920932, -26.17165702836221], [-58.19536235177484, -26.17213010541245], [-58.19520228831011, -26.17252405111379], [-58.19516678239357, -26.1725514500564], [-58.19511657837055, -26.17255758163355], [-58.19482897124534, -26.17246820805575], [-58.19385918500088, -26.17214484679662], [-58.19307724227034, -26.17187614201652], [-58.19303934075612, -26.17185697128982], [-58.19302001851688, -26.17180469487813], [-58.19337280841414, -26.17093025616964], [-58.19344705514884, -26.17092353282857], [-58.19382945541687, -26.17106265637294], [-58.19496048449183, -26.17143783595811], [-58.19504105684639, -26.17145150002513], [-58.19550728682534, -26.1715921109323], [-58.19554120920932, -26.17165702836221]]]}}, {"type": "Feature", "properties": {"id": 105, "barrio": 3131}, "geometry": {"type": "Polygon", "coordinates": [[[-58.1513561037674, -26.1534112649974], [-58.15127968499976, -26.15338397536279], [-58.15077473979316, -26.15465432001658], [-58.14888283506218, -26.15404709020798], [-58.15112640446123, -26.14856719720172], [-58.15300176906369, -26.14916047632625], [-58.1513561037674, -26.1534112649974]]]}}, {"type": "Feature", "properties": {"id": 195, "barrio": 3133}, "geometry": {"type": "Polygon", "coordinates": [[[-58.19925462532956, -26.20289621706121], [-58.19820398547766, -26.20560614513427], [-58.19791792242961, -26.20468939004837], [-58.19710155286091, -26.20349789696765], [-58.19630761842524, -26.20291108333285], [-58.19437767736404, -26.20207961042808], [-58.19114884580905, -26.2008647251596], [-58.19029920357671, -26.20028839308446], [-58.18988440518712, -26.20018473967757], [-58.19002514500796, -26.19987912341358], [-58.19925462532956, -26.20289621706121]]]}}, {"type": "Feature", "properties": {"id": 83, "barrio": 3137}, "geometry": {"type": "Polygon", "coordinates": [[[-58.21179199362544, -26.18325714008977], [-58.21104188244895, -26.18523708798113], [-58.20903225279572, -26.18459050708015], [-58.20981306625317, -26.18260367532312], [-58.21179199362544, -26.18325714008977]]]}}, {"type": "Feature", "properties": {"id": 136, "barrio": 3159}, "geometry": {"type": "Point", "coordinates": [-57.723595, -25.296847]}}, {"type": "Feature", "properties": {"id": 54, "barrio": 3162}, "geometry": {"type": "Polygon", "coordinates": [[[-58.17218184469039, -26.13502344815712], [-58.17359333919413, -26.13095408211364], [-58.17462934002357, -26.1312837991453], [-58.17627496546341, -26.12715972621157], [-58.1806165466684, -26.12859110569443], [-58.17911987783136, -26.1322727304271], [-58.18427080651375, -26.1338341037586], [-58.18249127316362, -26.13813747395856], [-58.17218184469039, -26.13502344815712]]]}}, {"type": "Feature", "properties": {"id": 9, "barrio": 3166}, "geometry": {"type": "Polygon", "coordinates": [[[-58.177972, -26.176742], [-58.18712, -26.17975], [-58.190556, -26.17117], [-58.181854, -26.168334], [-58.180167, -26.172551], [-58.179708, -26.172444]]]}}, {"type": "Feature", "properties": {"id": 78, "barrio": 3167}, "geometry": {"type": "Polygon", "coordinates": [[[-58.21674738789174, -26.15951034685072], [-58.21316157204112, -26.16857312386559], [-58.20388857652254, -26.16558582560718], [-58.20492959826819, -26.16308192955301], [-58.20490050793686, -26.16289038194928], [-58.20458778299238, -26.16218713883688], [-58.20462840060183, -26.16206887725925], [-58.21674738789174, -26.15951034685072]]]}}, {"type": "Feature", "properties": {"id": 28, "barrio": 3168}, "geometry": {"type": "Polygon", "coordinates": [[[-58.20290116363154, -26.18143593707232], [-58.20246349458948, -26.18257549488021], [-58.20186421795151, -26.18406367805687], [-58.20168457475147, -26.18449130431009], [-58.20163385133277, -26.18451481939298], [-58.2006304978418, -26.18418830841347], [-58.20060567692682, -26.18417197301389], [-58.2013926018941, -26.18223250828509], [-58.20182635097131, -26.18117727883859], [-58.2022439088695, -26.18015288384672], [-58.20327406244235, -26.18048602884421], [-58.20300248873602, -26.18122570528361], [-58.20453243061311, -26.1817131215509], [-58.20526458029514, -26.18194658524552], [-58.20516871159657, -26.18218576457511], [-58.20290116363154, -26.18143593707232]]]}}, {"type": "Feature", "properties": {"id": 197, "barrio": 3171}, "geometry": {"type": "Polygon", "coordinates": [[[-58.24159253741622, -26.22901759006793], [-58.24203017765955, -26.22830430493721], [-58.24394922329977, -26.22747869552729], [-58.24691035111374, -26.22825842578403], [-58.24866467249441, -26.22982904198062], [-58.2438792686271, -26.2323796381204], [-58.24159253741622, -26.22901759006793]]]}}, {"type": "Feature", "properties": {"id": 92, "barrio": 3186}, "geometry": {"type": "Polygon", "coordinates": [[[-58.1375376494403, -26.13304055862465], [-58.13890070513615, -26.12919378199118], [-58.14468191368941, -26.12925869593462], [-58.14274357956631, -26.13459135746358], [-58.1375376494403, -26.13304055862465]]]}}, {"type": "Feature", "properties": {"id": 90, "barrio": 3191}, "geometry": {"type": "Polygon", "coordinates": [[[-58.18258686302057, -26.13817974429277], [-58.1848541407379, -26.13246362329986], [-58.18493587407332, -26.1323831455546], [-58.18530652323064, -26.13247231168555], [-58.18967113340732, -26.13386376966937], [-58.19053424364341, -26.13177527802948], [-58.19498444909199, -26.13327774335987], [-58.19413666037883, -26.13528868491827], [-58.19331898892147, -26.13732719876593], [-58.19247764041915, -26.13946395852058], [-58.19184960369738, -26.14115485650732], [-58.19167351826592, -26.1420030513363], [-58.18976555599971, -26.14302503047764], [-58.18855225493736, -26.14086335623712], [-58.18879729817283, -26.14006810058669], [-58.18258686302057, -26.13817974429277]]]}}, {"type": "Feature", "properties": {"id": 66, "barrio": 3200}, "geometry": {"type": "Polygon", "coordinates": [[[-58.17012278164722, -26.16923297077194], [-58.16902992466535, -26.16922891104143], [-58.16836331481581, -26.16855158209822], [-58.16802780558195, -26.16765568669395], [-58.16824312888354, -26.16668750371023], [-58.16649372559331, -26.16465036938842], [-58.16693963144555, -26.16347628324173], [-58.17176549214643, -26.16502749854056], [-58.17012278164722, -26.16923297077194]]]}}, {"type": "Feature", "properties": {"id": 5, "barrio": 3217}, "geometry": {"type": "Polygon", "coordinates": [[[-58.19170681863263, -26.19570736479371], [-58.19005812265797, -26.1997735668634], [-58.1804669273938, -26.19663082237481], [-58.18212374345475, -26.19260316786503], [-58.19170681863263, -26.19570736479371]]]}}, {"type": "Feature", "properties": {"id": 31, "barrio": 3221}, "geometry": {"type": "Polygon", "coordinates": [[[-58.20213050285386, -26.1800968107611], [-58.20215236895245, -26.18015782700767], [-58.20137387686172, -26.1820786192999], [-58.20053965417408, -26.18414859378972], [-58.19892869818717, -26.18363547599861], [-58.19894939024427, -26.18353807325568], [-58.19931779732659, -26.18269468559556], [-58.19951223802509, -26.18223881660084], [-58.19971946362096, -26.18164907437026], [-58.20011999486839, -26.18065393171494], [-58.20055117361948, -26.17959838346848], [-58.20213050285386, -26.1800968107611]]]}}, {"type": "Feature", "properties": {"id": 119, "barrio": 3224}, "geometry": {"type": "Polygon", "coordinates": [[[-58.20054012866448, -26.17323461396629], [-58.20034157680886, -26.17314564226779], [-58.1991210828262, -26.17270942357338], [-58.19928088959877, -26.17228432661031], [-58.19950433996691, -26.17235095704072], [-58.19971829491013, -26.1718403750122], [-58.20092566638888, -26.17224602569212], [-58.20054012866448, -26.17323461396629]]]}}, {"type": "Feature", "properties": {"id": 82, "barrio": 3237}, "geometry": {"type": "Polygon", "coordinates": [[[-58.21857203797257, -26.19121636734056], [-58.21657523727033, -26.19057063010752], [-58.21696407052271, -26.1895748600649], [-58.21895580293671, -26.19021923666276], [-58.21857203797257, -26.19121636734056]]]}}, {"type": "Feature", "properties": {"id": 27, "barrio": 3240}, "geometry": {"type": "Polygon", "coordinates": [[[-58.20517723470851, -26.17592977647654], [-58.20819521794834, -26.17690362796697], [-58.20915541617921, -26.17857299603823], [-58.20708481022056, -26.18394824868711], [-58.20482708415732, -26.18321564043227], [-58.20532686900197, -26.18196701657383], [-58.20305717387516, -26.18124298780137], [-58.20517723470851, -26.17592977647654]]]}}, {"type": "Feature", "properties": {"id": 207, "barrio": 3244}, "geometry": {"type": "Polygon", "coordinates": [[[-58.19825404772058, -26.17881582354982], [-58.1963898447038, -26.1781959900085], [-58.19752603545985, -26.17537248251503], [-58.19941012894958, -26.17598969333967], [-58.19825404772058, -26.17881582354982]]]}}, {"type": "Feature", "properties": {"id": 208, "barrio": 3245}, "geometry": {"type": "Polygon", "coordinates": [[[-58.19630896836018, -26.1781700147968], [-58.19340865646639, -26.17721257760629], [-58.19452994946087, -26.17438805743138], [-58.19553532468967, -26.17471336996869], [-58.19517674554443, -26.17555686279873], [-58.19712649624933, -26.17620465063901], [-58.19630896836018, -26.1781700147968]]]}}, {"type": "Feature", "properties": {"id": 16, "barrio": 3254}, "geometry": {"type": "Polygon", "coordinates": [[[-58.25382934286064, -26.20160331093614], [-58.25053640834297, -26.20986665239535], [-58.24033268581796, -26.20658646136007], [-58.23646446824615, -26.20533984875192], [-58.23976210606338, -26.19702269412135], [-58.25382934286064, -26.20160331093614]]]}}, {"type": "Feature", "properties": {"id": 193, "barrio": 3256}, "geometry": {"type": "Polygon", "coordinates": [[[-58.17624021625272, -26.12714766063101], [-58.17459677765296, -26.1312101700257], [-58.17359015600059, -26.13087916140788], [-58.17513741645234, -26.12679304826911], [-58.17624021625272, -26.12714766063101]]]}}, {"type": "Feature", "properties": {"id": 79, "barrio": 3258}, "geometry": {"type": "Polygon", "coordinates": [[[-58.22619279412856, -26.16303162380253], [-58.22445138094735, -26.16743849283717], [-58.21497137310023, -26.16438319880454], [-58.21675064690732, -26.15997495174644], [-58.21903959726186, -26.16073545556362], [-58.2217287532081, -26.16169459436206], [-58.22619279412856, -26.16303162380253]]]}}, {"type": "Feature", "properties": {"id": 198, "barrio": 3262}, "geometry": {"type": "Polygon", "coordinates": [[[-58.21434811209811, -26.18893640722883], [-58.21395972022199, -26.18992413719451], [-58.2127036230624, -26.18952678262205], [-58.21309275756608, -26.18854093857262], [-58.21434811209811, -26.18893640722883]]]}}, {"type": "Feature", "properties": {"id": 199, "barrio": 3268}, "geometry": {"type": "Polygon", "coordinates": [[[-58.27199499299655, -26.27577164202359], [-58.26798904972892, -26.27680459438632], [-58.2687449627039, -26.27475290571156], [-58.27199499299655, -26.27577164202359]]]}}, {"type": "Feature", "properties": {"id": 67, "barrio": 3282}, "geometry": {"type": "Polygon", "coordinates": [[[-58.16576532169926, -26.15326612688023], [-58.16556780385839, -26.15360561496234], [-58.16395973343167, -26.15305250609307], [-58.16226575421698, -26.15324547689041], [-58.16014011030136, -26.15316708916645], [-58.15960965624306, -26.1546519712751], [-58.15884511445307, -26.15457080302039], [-58.15885467982314, -26.15419383894572], [-58.15878073465391, -26.15361347259394], [-58.15883307707925, -26.15291569460653], [-58.15950836672839, -26.15124555809558], [-58.16576532169926, -26.15326612688023]]]}}, {"type": "Feature", "properties": {"id": 2, "barrio": 3293}, "geometry": {"type": "Polygon", "coordinates": [[[-58.18020523460186, -26.19654267423794], [-58.17572093619179, -26.19506967104631], [-58.17655835065432, -26.19301155104512], [-58.17533439908802, -26.19260914919736], [-58.17492961298493, -26.19366215418587], [-58.17378739627655, -26.19328090138215], [-58.17339042963979, -26.19431160330474], [-58.17118226897179, -26.19359701548498], [-58.174032324431, -26.18653823795184], [-58.17408322965683, -26.18651342909971], [-58.17518155070449, -26.18686064063325], [-58.17557729599263, -26.18584705826395], [-58.18339443887616, -26.18841238773096], [-58.18020523460186, -26.19654267423794]]]}}, {"type": "Feature", "properties": {"id": 19, "barrio": 3294}, "geometry": {"type": "Polygon", "coordinates": [[[-58.21290213406518, -26.19659217208506], [-58.21264641558236, -26.19715817859549], [-58.21251170246637, -26.19720449463416], [-58.21207044051371, -26.19715272012587], [-58.21169503459034, -26.19711326005524], [-58.21142508073465, -26.19701289759589], [-58.21041763557563, -26.19668026094707], [-58.21030539948474, -26.19659282543489], [-58.20987020330262, -26.19645785223233], [-58.2110319171429, -26.19357813714111], [-58.21139797587877, -26.19261816513843], [-58.21188385664805, -26.1915238956978], [-58.21206328313883, -26.19105439722171], [-58.21471843237934, -26.1919133871127], [-58.2145747142378, -26.19238215461913], [-58.21313616655586, -26.19193002999563], [-58.21270815703443, -26.19302376829308], [-58.21413597961784, -26.19349174377793], [-58.21290213406518, -26.19659217208506]]]}}, {"type": "Feature", "properties": {"id": 1, "barrio": 3347}, "geometry": {"type": "Polygon", "coordinates": [[[-58.17004576907718, -26.19333092863284], [-58.16897372388809, -26.19300410906906], [-58.16806760532875, -26.19269830780246], [-58.16740385719265, -26.192406053783], [-58.16583863046605, -26.1918175842511], [-58.16426429075055, -26.19132011988848], [-58.16391861839659, -26.19127672027476], [-58.16285072426227, -26.19098190887701], [-58.16089489757936, -26.19032341987041], [-58.15849782894978, -26.18947140410413], [-58.15926630576654, -26.18743070867705], [-58.15954616428929, -26.18682133347564], [-58.1601068700957, -26.18644157770604], [-58.16130605902092, -26.18563447937429], [-58.16268235098313, -26.18395815919472], [-58.16321516834656, -26.18413385806003], [-58.16415506610236, -26.18171150340363], [-58.16690467482281, -26.17469270191526], [-58.16739491287643, -26.17362884240644], [-58.16762745684455, -26.17375299150761], [-58.16862366997561, -26.17397463556819], [-58.17752289317385, -26.17690154735267], [-58.17465155888031, -26.18403688351803], [-58.17353343543773, -26.18365059319301], [-58.17259303014328, -26.18601231313187], [-58.17370639443623, -26.18638828762412], [-58.17083687693538, -26.19353191872339], [-58.17004576907718, -26.19333092863284]]]}}, {"type": "Feature", "properties": {"id": 22, "barrio": 3350}, "geometry": {"type": "Polygon", "coordinates": [[[-58.20782248760028, -26.1904040585168], [-58.20748386051264, -26.19122376691747], [-58.20460950217085, -26.19027763578463], [-58.2049208697516, -26.18947801356795], [-58.20782248760028, -26.1904040585168]]]}}, {"type": "Feature", "properties": {"id": 85, "barrio": 3358}, "geometry": {"type": "Polygon", "coordinates": [[[-58.19925462532956, -26.20289621706121], [-58.19820398547766, -26.20560614513427], [-58.19791792242961, -26.20468939004837], [-58.19710155286091, -26.20349789696765], [-58.19630761842524, -26.20291108333285], [-58.19437767736404, -26.20207961042808], [-58.19114884580905, -26.2008647251596], [-58.19029920357671, -26.20028839308446], [-58.18988440518712, -26.20018473967757], [-58.19002514500796, -26.19987912341358], [-58.19925462532956, -26.20289621706121]]]}}, {"type": "Feature", "properties": {"id": 48, "barrio": 3366}, "geometry": {"type": "Polygon", "coordinates": [[[-58.16642373644739, -26.16474895818678], [-58.16438082458969, -26.16407859460206], [-58.16396715263584, -26.16396802574495], [-58.16284536966075, -26.163866023424], [-58.16245238432006, -26.16369778056514], [-58.16113057195941, -26.16222779661894], [-58.16009009387755, -26.16168941109928], [-58.15752183771924, -26.16076866687164], [-58.15799623108029, -26.15951359049187], [-58.15880282513005, -26.1576959464689], [-58.16242195519399, -26.15882958767262], [-58.16265500869458, -26.15915662603707], [-58.16300961803206, -26.16001210862757], [-58.16529287850017, -26.16065879843492], [-58.16552986077583, -26.16011628359416], [-58.16588626997771, -26.15964304662011], [-58.16655445467782, -26.15930235716906], [-58.16760677800124, -26.15897291912166], [-58.16799695876561, -26.15895766211047], [-58.16842968552665, -26.15915808629481], [-58.16853023911514, -26.1594127935733], [-58.16642373644739, -26.16474895818678]]]}}, {"type": "Feature", "properties": {"id": 101, "barrio": 3384}, "geometry": {"type": "Polygon", "coordinates": [[[-58.2013677411503, -26.17120313612507], [-58.20093702927442, -26.17220242452671], [-58.1996883766741, -26.17177604205741], [-58.19952013678972, -26.17219575432887], [-58.19932473349255, -26.17212986585555], [-58.19910783176128, -26.17270586998037], [-58.19864538528668, -26.1725532717326], [-58.19945332266812, -26.17058408844432], [-58.2013677411503, -26.17120313612507]]]}}, {"type": "Feature", "properties": {"id": 43, "barrio": 3388}, "geometry": {"type": "Polygon", "coordinates": [[[-58.19588951391218, -26.17078357817338], [-58.19558636951042, -26.17155396226002], [-58.19339769677731, -26.1708490526949], [-58.19400234941661, -26.16935777070913], [-58.19479573592498, -26.16961658461194], [-58.19451163128114, -26.17034560410655], [-58.19588951391218, -26.17078357817338]]]}}, {"type": "Feature", "properties": {"id": 100, "barrio": 3390}, "geometry": {"type": "Polygon", "coordinates": [[[-58.19622273828935, -26.17302203430535], [-58.19558580533536, -26.1746644582543], [-58.19455371739704, -26.17433500578246], [-58.19521734142472, -26.1726998303329], [-58.19622273828935, -26.17302203430535]]]}}, {"type": "Feature", "properties": {"id": 88, "barrio": 3391}, "geometry": {"type": "Polygon", "coordinates": [[[-58.21367431449058, -26.17865334060785], [-58.2118103199695, -26.18319599461425], [-58.2079480712583, -26.1819209713975], [-58.20975681968596, -26.17740070986774], [-58.21367431449058, -26.17865334060785]]]}}, {"type": "Feature", "properties": {"id": 45, "barrio": 3392}, "geometry": {"type": "Polygon", "coordinates": [[[-58.18199179976134, -26.16693652022146], [-58.18195016152023, -26.16691359481929], [-58.18201472069048, -26.1667599541521], [-58.18309722830218, -26.16399617867043], [-58.18366451877068, -26.16257170989194], [-58.18392861507513, -26.16192821922946], [-58.18432523389767, -26.16092467852516], [-58.18464034377938, -26.16013792887449], [-58.18556702143776, -26.15780710484692], [-58.18568694581431, -26.15778902917931], [-58.19030223758031, -26.15956275568502], [-58.19200505489094, -26.1602679265007], [-58.19446947224972, -26.16132497403943], [-58.19343231043296, -26.16403310539722], [-58.19324472843827, -26.16449568558434], [-58.18199179976134, -26.16693652022146]]]}}, {"type": "Feature", "properties": {"id": 76, "barrio": 3393}, "geometry": {"type": "Polygon", "coordinates": [[[-58.23639080642325, -26.20529173502431], [-58.2264321260207, -26.20210349230212], [-58.22344479945936, -26.20109148510541], [-58.22029809264785, -26.1999272298715], [-58.22082488464068, -26.19910611990056], [-58.22147381994339, -26.19825786409656], [-58.22166918413305, -26.19821149367759], [-58.22271593992965, -26.19858922261134], [-58.22293725021689, -26.19851442002445], [-58.22323291801231, -26.19806143779009], [-58.22557591318811, -26.19236555616223], [-58.23970629754956, -26.19695150396316], [-58.23639080642325, -26.20529173502431]]]}}, {"type": "Feature", "properties": {"id": 108, "barrio": 3394}, "geometry": {"type": "Polygon", "coordinates": [[[-58.14930299432672, -26.13798833234142], [-58.14780246277604, -26.13750628736817], [-58.15075289936644, -26.12936250194334], [-58.152446071134, -26.12939433995283], [-58.14930299432672, -26.13798833234142]]]}}, {"type": "Feature", "properties": {"id": 71, "barrio": 3397}, "geometry": {"type": "Polygon", "coordinates": [[[-58.21600247654056, -26.18916950489844], [-58.21593839501848, -26.18907772448], [-58.21598647478024, -26.18891406068444], [-58.21633241474219, -26.18806252663045], [-58.21672550630526, -26.18709898203966], [-58.21753472478133, -26.18509281881664], [-58.21809263950628, -26.18372552970968], [-58.2182669422079, -26.1833269125287], [-58.21836780051829, -26.18323226014506], [-58.22140560844331, -26.18425395134901], [-58.22344930098461, -26.18492997369782], [-58.22709772432006, -26.18606853323012], [-58.22781623129671, -26.18631529406856], [-58.22788922140653, -26.18637397851557], [-58.22709507799595, -26.18833637841147], [-58.22629740695112, -26.1903197109503], [-58.22576435304597, -26.19166636902228], [-58.22553761480477, -26.19215241610372], [-58.2254349062053, -26.19219702255925], [-58.22349187859309, -26.19158488870971], [-58.2201177675918, -26.19051452512786], [-58.21806235542503, -26.18983357573971], [-58.21623067098538, -26.18924555570269], [-58.21600247654056, -26.18916950489844]]]}}, {"type": "Feature", "properties": {"id": 106, "barrio": 3398}, "geometry": {"type": "Polygon", "coordinates": [[[-58.15583319386256, -26.15007899567248], [-58.15411352562639, -26.15455533616564], [-58.15342238089506, -26.15423743912094], [-58.15340787751701, -26.15410685127546], [-58.15139336674979, -26.15342347997892], [-58.15306589514292, -26.14918299119687], [-58.15583319386256, -26.15007899567248]]]}}, {"type": "Feature", "properties": {"id": 104, "barrio": 3412}, "geometry": {"type": "Polygon", "coordinates": [[[-58.14804136733858, -26.15607222522068], [-58.14438632684175, -26.15491382433662], [-58.14741157081314, -26.14733980200425], [-58.15106204639825, -26.14854613966857], [-58.14804136733858, -26.15607222522068]]]}}, {"type": "Feature", "properties": {"id": 188, "barrio": 3415}, "geometry": {"type": "Polygon", "coordinates": [[[-58.29340649296726, -26.22352922415164], [-58.29528918885457, -26.23114995457712], [-58.29238421423464, -26.23306349225771], [-58.28506809968892, -26.2340570507256], [-58.28939358049716, -26.22273471300894], [-58.29340649296726, -26.22352922415164]]]}}, {"type": "Feature", "properties": {"id": 205, "barrio": 3416}, "geometry": {"type": "Polygon", "coordinates": [[[-58.1994311200171, -26.17593725098611], [-58.19754503000528, -26.17533123399689], [-58.19820734213671, -26.17366662287409], [-58.20009174445226, -26.17429907407863], [-58.1994311200171, -26.17593725098611]]]}}, {"type": "Feature", "properties": {"id": 68, "barrio": 3420}, "geometry": {"type": "Polygon", "coordinates": [[[-58.16559793185848, -26.15309726365337], [-58.16478789201384, -26.15286358565272], [-58.16196228770584, -26.15193337436292], [-58.16377703736953, -26.14735495036097], [-58.16539769537392, -26.14335401262487], [-58.16898351438601, -26.14458279119575], [-58.16559793185848, -26.15309726365337]]]}}, {"type": "Feature", "properties": {"id": 30, "barrio": 3433}, "geometry": {"type": "Polygon", "coordinates": [[[-58.20324654407155, -26.17760206701021], [-58.20432428644087, -26.17794024624526], [-58.20330794503242, -26.1804267394475], [-58.20226115747551, -26.18007313668361], [-58.20324654407155, -26.17760206701021]]]}}, {"type": "Feature", "properties": {"id": 200, "barrio": 3454}, "geometry": {"type": "Polygon", "coordinates": [[[-58.24465165207432, -26.19851297318114], [-58.24036194534973, -26.1971869406379], [-58.23973552015666, -26.19686587155238], [-58.24137054014653, -26.19266562943321], [-58.24625716811166, -26.1942418015521], [-58.24465165207432, -26.19851297318114]]]}}, {"type": "Feature", "properties": {"id": 35, "barrio": 3468}, "geometry": {"type": "Polygon", "coordinates": [[[-58.19664106978356, -26.18288345885446], [-58.19475656126388, -26.18228840978759], [-58.19555350855705, -26.18030268776355], [-58.19740072366412, -26.18090521343047], [-58.19664106978356, -26.18288345885446]]]}}, {"type": "Feature", "properties": {"id": 34, "barrio": 3469}, "geometry": {"type": "Polygon", "coordinates": [[[-58.19178008591035, -26.18130507483988], [-58.19337321243796, -26.17729780415185], [-58.19628975235926, -26.17823722324815], [-58.19471008358214, -26.18226112672856], [-58.19178008591035, -26.18130507483988]]]}}, {"type": "Feature", "properties": {"id": 55, "barrio": 3471}, "geometry": {"type": "Polygon", "coordinates": [[[-58.15359197286659, -26.12907966141935], [-58.15322952874659, -26.12901434270583], [-58.14847213197954, -26.12893372726038], [-58.14852151737831, -26.12493534127174], [-58.15257936421003, -26.12504128563461], [-58.15490362609504, -26.12524300520141], [-58.15935601090291, -26.12664204996873], [-58.15946324103419, -26.12672774475221], [-58.15928886370901, -26.12720646361307], [-58.16192471832341, -26.128027054938], [-58.16060555776729, -26.13131220751356], [-58.15359197286659, -26.12907966141935]]]}}, {"type": "Feature", "properties": {"id": 56, "barrio": 3472}, "geometry": {"type": "Polygon", "coordinates": [[[-58.16019266226065, -26.19130404027918], [-58.15961290085781, -26.19140489376015], [-58.1575915063041, -26.19389063647736], [-58.15864349784982, -26.19740962132174], [-58.15825914260119, -26.19875412957346], [-58.16051088943686, -26.20007586841871], [-58.15876179239993, -26.20428826118604], [-58.15798864011604, -26.20729291912564], [-58.15784078364815, -26.20802422017017], [-58.16059667791486, -26.20828879059626], [-58.16075658560159, -26.20899348515724], [-58.16031985131792, -26.2099538604304], [-58.15937156199351, -26.20964135826103], [-58.15271438522706, -26.20749508664312], [-58.15272073421326, -26.20930462292029], [-58.1502547958147, -26.20877104793878], [-58.14766475874607, -26.21558321612798], [-58.14370292560929, -26.21453313054148], [-58.14458595408154, -26.2121829841127], [-58.14542263197746, -26.20913093665459], [-58.14611120825308, -26.20533622034951], [-58.14717396047652, -26.20107812273574], [-58.14691719989568, -26.200189171987], [-58.14867103737863, -26.19778213080181], [-58.15173102814072, -26.19399078405713], [-58.15374587944854, -26.19153779384613], [-58.15665060458874, -26.18912399315954], [-58.1606174442752, -26.19041362074281], [-58.16019266226065, -26.19130404027918]]]}}, {"type": "Feature", "properties": {"id": 93, "barrio": 3474}, "geometry": {"type": "Polygon", "coordinates": [[[-58.26685950108094, -26.24463911801852], [-58.26605947245974, -26.24635248612917], [-58.26144495024272, -26.25980399314319], [-58.2588739371251, -26.2681261595257], [-58.25703504360823, -26.26856209886593], [-58.25574759391405, -26.26853104190835], [-58.25454745121984, -26.26820338963083], [-58.252730536804, -26.26912691821559], [-58.25269671459238, -26.26915457749707], [-58.25196529383153, -26.26858637294637], [-58.25211894702936, -26.26812811838376], [-58.2527726756876, -26.26712582482509], [-58.25262082314234, -26.2663051343529], [-58.25151777654914, -26.26601148167643], [-58.25057528452906, -26.26605880353944], [-58.2506651979273, -26.26495764407542], [-58.25206914822058, -26.26137315442426], [-58.24818836233395, -26.26026094292825], [-58.24452010079231, -26.25902635675695], [-58.24266421651213, -26.25823845994616], [-58.2433225444108, -26.25662946346616], [-58.25032196233224, -26.23923915438085], [-58.26539140854681, -26.24410466537378], [-58.26685950108094, -26.24463911801852]]]}}, {"type": "Feature", "properties": {"id": 201, "barrio": 3488}, "geometry": {"type": "Polygon", "coordinates": [[[-58.21416002017481, -26.19344030538188], [-58.21279559744472, -26.19298576044832], [-58.21317680231296, -26.19199029689693], [-58.2145491318824, -26.19242927680242], [-58.21416002017481, -26.19344030538188]]]}}, {"type": "Feature", "properties": {"id": 192, "barrio": 3489}, "geometry": {"type": "Polygon", "coordinates": [[[-58.20162050978428, -26.17056042800629], [-58.19971749011985, -26.16992799683126], [-58.20027834519716, -26.16852973497176], [-58.20067778326138, -26.16750922905558], [-58.20082659796231, -26.16754156039067], [-58.20119276231726, -26.16770469626775], [-58.20227572070089, -26.16885436187215], [-58.20228398881809, -26.1689550388688], [-58.20184625847922, -26.17011403978373], [-58.20167597844322, -26.17041933125661], [-58.20162050978428, -26.17056042800629]]]}}, {"type": "Feature", "properties": {"id": 62, "barrio": 3493}, "geometry": {"type": "Polygon", "coordinates": [[[-58.19325199486034, -26.17102610147201], [-58.1932349234637, -26.17107159817997], [-58.19295786144863, -26.17176302602644], [-58.19291499171499, -26.17179903525704], [-58.1928213040286, -26.171805020696], [-58.19092610327859, -26.17118830219905], [-58.19087013762425, -26.1711457673678], [-58.19087161470971, -26.17106349707677], [-58.19115858341035, -26.17031345165321], [-58.19321067372634, -26.1709833685774], [-58.19325199486034, -26.17102610147201]]]}}, {"type": "Feature", "properties": {"id": 206, "barrio": 3497}, "geometry": {"type": "Polygon", "coordinates": [[[-58.1971467810745, -26.17615003378499], [-58.19522964615664, -26.17552693612878], [-58.19626468285599, -26.17303330066317], [-58.19814368556749, -26.17364419735768], [-58.1971467810745, -26.17615003378499]]]}}, {"type": "Feature", "properties": {"id": 21, "barrio": 3498}, "geometry": {"type": "Polygon", "coordinates": [[[-58.2086084991846, -26.19609755685579], [-58.20301770615364, -26.19431721716751], [-58.20459372329935, -26.1903345911793], [-58.20754573741521, -26.19130005391704], [-58.20791383887153, -26.19037433743642], [-58.20493775252255, -26.18942635673137], [-58.20619634058961, -26.18628192366055], [-58.20918956325334, -26.18723375695257], [-58.21309164998625, -26.18854003434338], [-58.21269838424136, -26.18953702064117], [-58.2126011671075, -26.18956330822646], [-58.21240301251969, -26.18999910352306], [-58.2124293654239, -26.1901000404655], [-58.21185561999878, -26.19150870384592], [-58.21079847564511, -26.19121193435343], [-58.21038510655207, -26.19141653774857], [-58.2086084991846, -26.19609755685579]]]}}, {"type": "Feature", "properties": {"id": 49, "barrio": 3505}, "geometry": {"type": "Polygon", "coordinates": [[[-58.16060210407711, -26.14171075643262], [-58.15940327377184, -26.14129351445118], [-58.15590159161066, -26.14996075687272], [-58.14613116044272, -26.14682236686952], [-58.14931998297315, -26.13809702697051], [-58.15506998048286, -26.13993940325991], [-58.15816090746225, -26.14095591161076], [-58.15897358102011, -26.14125359761824], [-58.16246107844646, -26.13253830159091], [-58.16405030581506, -26.13304703967952], [-58.16060210407711, -26.14171075643262]]]}}, {"type": "Feature", "properties": {"id": 50, "barrio": 3506}, "geometry": {"type": "Polygon", "coordinates": [[[-58.14933601743731, -26.13802055179335], [-58.15248665314257, -26.12939700955041], [-58.15518175296218, -26.13015087826677], [-58.15892149181509, -26.13136485445475], [-58.16122660880268, -26.1321164408233], [-58.16183420841805, -26.13231793229561], [-58.1618564884434, -26.13234666912453], [-58.16186294896947, -26.13244352611309], [-58.16052005401435, -26.13580561833274], [-58.15961109618398, -26.13810731354448], [-58.15901492757441, -26.13959613534796], [-58.15851980744763, -26.14082266161532], [-58.15837002520303, -26.14093473024589], [-58.14933601743731, -26.13802055179335]]]}}, {"type": "Feature", "properties": {"id": 52, "barrio": 3513}, "geometry": {"type": "Polygon", "coordinates": [[[-58.14281990851637, -26.13461435561481], [-58.14339199964461, -26.13305114284234], [-58.14478037446826, -26.12926686374277], [-58.15069792708988, -26.12936841108348], [-58.14807686114543, -26.13620106384472], [-58.14281990851637, -26.13461435561481]]]}}, {"type": "Feature", "properties": {"id": 13, "barrio": 3519}, "geometry": {"type": "Polygon", "coordinates": [[[-58.18833252589268, -26.18967069244296], [-58.18388476326774, -26.18819985454516], [-58.18630343572233, -26.18213884949336], [-58.19077424087509, -26.18360149992733], [-58.18833252589268, -26.18967069244296]]]}}, {"type": "Feature", "properties": {"id": 202, "barrio": 3523}, "geometry": {"type": "Polygon", "coordinates": [[[-58.21438328370647, -26.18901098395662], [-58.21443404305877, -26.18898618992451], [-58.21463249355401, -26.18898718512255], [-58.21470025526043, -26.18899742246297], [-58.21477374604179, -26.1890465396628], [-58.21482003586459, -26.18913313851864], [-58.21493837253735, -26.1892463775115], [-58.21498138800569, -26.18934297057723], [-58.21500796891773, -26.19012648785131], [-58.21499552443729, -26.19017112985141], [-58.21495640042954, -26.19019751801912], [-58.21491408514712, -26.19020982503772], [-58.21486275581963, -26.19020780356842], [-58.21400539307184, -26.18994000611822], [-58.21438328370647, -26.18901098395662]]]}}, {"type": "Feature", "properties": {"id": 121, "barrio": 3538}, "geometry": {"type": "Polygon", "coordinates": [[[-58.20834261042561, -26.17439085944655], [-58.20822500639616, -26.17465256544855], [-58.20819356276928, -26.17467976834772], [-58.208163928521, -26.17470141616658], [-58.20811830352523, -26.17472361278436], [-58.2080804741241, -26.17472609584368], [-58.20804187195854, -26.17470596115204], [-58.20802152045206, -26.17468554361024], [-58.2071755869654, -26.17318275727541], [-58.20654088317709, -26.17219225640899], [-58.20593688464044, -26.17143057641292], [-58.20580234831483, -26.17127144043257], [-58.2057921588198, -26.1712230812387], [-58.20580151463189, -26.17116354503288], [-58.20584835060873, -26.17110992362543], [-58.20592343056499, -26.17108779693016], [-58.20916337597094, -26.172165476961], [-58.20834261042561, -26.17439085944655]]]}}, {"type": "Feature", "properties": {"id": 77, "barrio": 3540}, "geometry": {"type": "Polygon", "coordinates": [[[-58.2227609080924, -26.17174274896489], [-58.2180929799025, -26.17018355456987], [-58.21974874808389, -26.16611725747079], [-58.22439747795225, -26.16761066399938], [-58.2227609080924, -26.17174274896489]]]}}, {"type": "Feature", "properties": {"id": 42, "barrio": 3547}, "geometry": {"type": "Polygon", "coordinates": [[[-58.19412899354588, -26.16884552769076], [-58.19376457344942, -26.16972928673216], [-58.19252996944887, -26.16931049523578], [-58.19248990224401, -26.16941388450265], [-58.19162629233358, -26.16912996712507], [-58.19203982367125, -26.16815928780333], [-58.19412899354588, -26.16884552769076]]]}}, {"type": "Feature", "properties": {"id": 103, "barrio": 3561}, "geometry": {"type": "Polygon", "coordinates": [[[-58.19544739668445, -26.16763504092116], [-58.19541651271331, -26.16762608985033], [-58.1953697721248, -26.1677465307546], [-58.19252956309597, -26.16683480312484], [-58.19284597838646, -26.16612494408466], [-58.19568183970402, -26.16703783501956], [-58.19544739668445, -26.16763504092116]]]}}, {"type": "Feature", "properties": {"id": 20, "barrio": 3562}, "geometry": {"type": "Polygon", "coordinates": [[[-58.21205931579654, -26.19100725284238], [-58.21242955937264, -26.19009860444957], [-58.21240188943917, -26.18999704745385], [-58.21260009157481, -26.18954719893793], [-58.21499832051374, -26.19029950884875], [-58.21491964379388, -26.19086175701063], [-58.21473079957634, -26.191876849311], [-58.21205931579654, -26.19100725284238]]]}}, {"type": "Feature", "properties": {"id": 18, "barrio": 3563}, "geometry": {"type": "Polygon", "coordinates": [[[-58.22378649896123, -26.1965848584061], [-58.22312764265912, -26.19812780970554], [-58.22290797435561, -26.19842732310985], [-58.22263220651265, -26.19849274815155], [-58.22222041876619, -26.19835358529484], [-58.22161543833953, -26.19814118055821], [-58.22144428548942, -26.1982114746479], [-58.22020971202036, -26.19989302408607], [-58.21886259289861, -26.19947949060878], [-58.21666481044034, -26.19882029930006], [-58.21528726501514, -26.198282918743], [-58.21455749667966, -26.19801401903795], [-58.21383456427022, -26.19775126103867], [-58.21361508076146, -26.19763873387377], [-58.21377513057395, -26.19717225193692], [-58.21433609957623, -26.19570759860813], [-58.21510341053024, -26.19380691270252], [-58.22378649896123, -26.1965848584061]]]}}, {"type": "Feature", "properties": {"id": 209, "barrio": 3564}, "geometry": {"type": "Polygon", "coordinates": [[[-58.16019266226065, -26.19130404027918], [-58.15961290085781, -26.19140489376015], [-58.1575915063041, -26.19389063647736], [-58.15864349784982, -26.19740962132174], [-58.15825914260119, -26.19875412957346], [-58.16051088943686, -26.20007586841871], [-58.15876179239993, -26.20428826118604], [-58.15798864011604, -26.20729291912564], [-58.15784078364815, -26.20802422017017], [-58.16059667791486, -26.20828879059626], [-58.16075658560159, -26.20899348515724], [-58.16031985131792, -26.2099538604304], [-58.15937156199351, -26.20964135826103], [-58.15271438522706, -26.20749508664312], [-58.15272073421326, -26.20930462292029], [-58.1502547958147, -26.20877104793878], [-58.14766475874607, -26.21558321612798], [-58.14370292560929, -26.21453313054148], [-58.14458595408154, -26.2121829841127], [-58.14542263197746, -26.20913093665459], [-58.14611120825308, -26.20533622034951], [-58.14717396047652, -26.20107812273574], [-58.14691719989568, -26.200189171987], [-58.14867103737863, -26.19778213080181], [-58.15173102814072, -26.19399078405713], [-58.15374587944854, -26.19153779384613], [-58.15665060458874, -26.18912399315954], [-58.1606174442752, -26.19041362074281], [-58.16019266226065, -26.19130404027918]]]}}, {"type": "Feature", "properties": {"id": 81, "barrio": 3565}, "geometry": {"type": "Polygon", "coordinates": [[[-58.2305153714507, -26.12504981458504], [-58.2211981819845, -26.12200127641187], [-58.222117622677, -26.11959914584805], [-58.22288663050345, -26.11870227484088], [-58.22275207407157, -26.11818008412023], [-58.22468288656899, -26.11338135691452], [-58.23399140822555, -26.116456032612], [-58.2305153714507, -26.12504981458504]]]}}, {"type": "Feature", "properties": {"id": 41, "barrio": 3566}, "geometry": {"type": "Polygon", "coordinates": [[[-58.19289407919719, -26.16601546047631], [-58.19341831451215, -26.16469948731267], [-58.19463700952614, -26.16440783907811], [-58.19610315421607, -26.16407095743725], [-58.19675048379879, -26.16393503041578], [-58.19692284193035, -26.16392353844413], [-58.19724667582393, -26.16408741252105], [-58.19746409365839, -26.16415996279739], [-58.19811701120811, -26.16436199414754], [-58.19848565086566, -26.1647782779222], [-58.19923243969482, -26.16559828420512], [-58.20062614915207, -26.16707322867387], [-58.20083670765019, -26.16728456981571], [-58.2009545256068, -26.16743066679195], [-58.20093350883889, -26.16750249074655], [-58.20086660720229, -26.16751452529443], [-58.20064402534078, -26.16746217449818], [-58.20023314727593, -26.16845110552063], [-58.19576854046943, -26.16700383631772], [-58.19394279435918, -26.16639904753755], [-58.19300104691005, -26.16610129087382], [-58.19291045747842, -26.16605967492281], [-58.19289407919719, -26.16601546047631]]]}}, {"type": "Feature", "properties": {"id": 107, "barrio": 3568}, "geometry": {"type": "Polygon", "coordinates": [[[-58.19202442595839, -26.18511887248157], [-58.19157180785068, -26.18496439138887], [-58.19179063329736, -26.18440173499409], [-58.19226161088328, -26.18455381246408], [-58.19202442595839, -26.18511887248157]]]}}, {"type": "Feature", "properties": {"id": 102, "barrio": 3582}, "geometry": {"type": "Polygon", "coordinates": [[[-58.14437962688095, -26.15144373738173], [-58.14270733043151, -26.15096574742461], [-58.14776983207452, -26.13757099341728], [-58.14927283198623, -26.13808236521862], [-58.14437962688095, -26.15144373738173]]]}}, {"type": "Feature", "properties": {"id": 110, "barrio": 3585}, "geometry": {"type": "Polygon", "coordinates": [[[-58.19125610801186, -26.18236414475715], [-58.19074821719588, -26.18219967921846], [-58.19107397918808, -26.1814139802321], [-58.19156462383905, -26.18157170500558], [-58.19125610801186, -26.18236414475715]]]}}, {"type": "Feature", "properties": {"id": 113, "barrio": 3609}, "geometry": {"type": "Polygon", "coordinates": [[[-58.14737963079668, -26.13806727284812], [-58.14678304930661, -26.13788514291708], [-58.14641030422526, -26.1389066053154], [-58.14176974298101, -26.13751347500359], [-58.14283666007842, -26.13465231532348], [-58.14803076504299, -26.13624081989418], [-58.14803369543584, -26.13624494825309], [-58.14737963079668, -26.13806727284812]]]}}, {"type": "Feature", "properties": {"id": 87, "barrio": 3621}, "geometry": {"type": "Polygon", "coordinates": [[[-58.20253726592084, -26.16770258928938], [-58.19987850182739, -26.16484463891483], [-58.19875216490687, -26.16372724220132], [-58.19733557612391, -26.16205309420026], [-58.19676218438561, -26.16155564791352], [-58.19499748561917, -26.16047533221895], [-58.19578888258047, -26.15851570964092], [-58.19608721784451, -26.15778957624047], [-58.19601007813478, -26.15766438759006], [-58.19600445309253, -26.15759632266317], [-58.19611551516327, -26.15742906142165], [-58.19623766361025, -26.15740975779042], [-58.19644418516621, -26.15748011208737], [-58.19810197550459, -26.15843663675033], [-58.19948700686521, -26.15939087354579], [-58.20079907125022, -26.15824279351581], [-58.20200925672693, -26.15984586469337], [-58.20344402540602, -26.1619093224909], [-58.20429294596634, -26.16215727867631], [-58.20466142966249, -26.16301825080712], [-58.20356452941168, -26.16560675927877], [-58.20281240806634, -26.1676510764488], [-58.20267986752899, -26.1677383921824], [-58.20253726592084, -26.16770258928938]]]}}, {"type": "Feature", "properties": {"id": 84, "barrio": 3661}, "geometry": {"type": "Polygon", "coordinates": [[[-58.20804169878452, -26.18425927444702], [-58.20712560946576, -26.18396612558398], [-58.20793037244714, -26.18197926843613], [-58.20881780279334, -26.18228124872024], [-58.20804169878452, -26.18425927444702]]]}}, {"type": "Feature", "properties": {"id": 115, "barrio": 3672}, "geometry": {"type": "Polygon", "coordinates": [[[-58.17565832225145, -26.19504516167016], [-58.17344569488758, -26.1943276159064], [-58.17383014371317, -26.19336375347285], [-58.17498088627598, -26.1937340661156], [-58.17539608422197, -26.19269504577155], [-58.17645725594991, -26.19305291413729], [-58.17565832225145, -26.19504516167016]]]}}, {"type": "Feature", "properties": {"id": 109, "barrio": 3691}, "geometry": {"type": "Polygon", "coordinates": [[[-58.20382223106144, -26.21950201393981], [-58.20026239623962, -26.21843381754368], [-58.20019478756898, -26.21735935698032], [-58.19990667506755, -26.21608013155369], [-58.20049892744819, -26.2127428657873], [-58.19988591960765, -26.20872731028194], [-58.19920916271717, -26.20772006685466], [-58.19950575258468, -26.20690942518005], [-58.19858476730149, -26.20654893142658], [-58.19853034660773, -26.20640662417862], [-58.19970096375432, -26.20305403228947], [-58.20906008046389, -26.20619471215794], [-58.20382223106144, -26.21950201393981]]]}}, {"type": "Feature", "properties": {"id": 112, "barrio": 3850}, "geometry": {"type": "Polygon", "coordinates": [[[-58.20056590903807, -26.13506999378715], [-58.1950553499919, -26.13329592658867], [-58.19540275995814, -26.13238848676406], [-58.19861385012079, -26.13341386941628], [-58.2003395690063, -26.12897098486923], [-58.20624476432342, -26.13089155440222], [-58.20056590903807, -26.13506999378715]]]}}, {"type": "Feature", "properties": {"id": 37, "barrio": 3853}, "geometry": {"type": "Polygon", "coordinates": [[[-58.20051193086187, -26.17327319888457], [-58.19825783714889, -26.17881707675793], [-58.19340471667917, -26.17720764492842], [-58.19453856215344, -26.17439294651198], [-58.19560328591771, -26.17473331043439], [-58.19629671262049, -26.17293759268332], [-58.19524654546326, -26.17259513694414], [-58.1956026831577, -26.17168954448069], [-58.19573902365504, -26.17166243378461], [-58.20024433670757, -26.17315234721112], [-58.20051193086187, -26.17327319888457]]]}}, {"type": "Feature", "properties": {"id": 40, "barrio": 3897}, "geometry": {"type": "Polygon", "coordinates": [[[-58.1920581393455, -26.16810188511648], [-58.19252838226404, -26.16683478144476], [-58.1946304972105, -26.16751416901128], [-58.19415321372389, -26.16878395755644], [-58.1920581393455, -26.16810188511648]]]}}, {"type": "Feature", "properties": {"id": 12, "barrio": 3945}, "geometry": {"type": "Polygon", "coordinates": [[[-58.19079555557068, -26.18353542230715], [-58.18971906243257, -26.18320369532617], [-58.19016308312877, -26.18209203379272], [-58.19123329388827, -26.18242256558154], [-58.19079555557068, -26.18353542230715]]]}}, {"type": "Feature", "properties": {"id": 73, "barrio": 3974}, "geometry": {"type": "Polygon", "coordinates": [[[-58.22889735606996, -26.18339714272841], [-58.21958372155554, -26.18038031660063], [-58.22028974125369, -26.17863335334548], [-58.22957276996625, -26.18167809657684], [-58.22889735606996, -26.18339714272841]]]}}, {"type": "Feature", "properties": {"id": 89, "barrio": 3978}, "geometry": {"type": "Polygon", "coordinates": [[[-58.1856680288772, -26.14342907417388], [-58.18128467108884, -26.14203898921705], [-58.182483445224, -26.13903985269618], [-58.186814771887, -26.14045888106572], [-58.1856680288772, -26.14342907417388]]]}}, {"type": "Feature", "properties": {"id": 187, "barrio": 3979}, "geometry": {"type": "Polygon", "coordinates": [[[-58.28172970545254, -26.22017125568896], [-58.28245848564321, -26.21824118932884], [-58.28387545111004, -26.21867481497278], [-58.28402950113629, -26.21837195816681], [-58.28436637009484, -26.21851051597226], [-58.28683004546798, -26.21948561651837], [-58.2860154147289, -26.22149871388059], [-58.28172970545254, -26.22017125568896]]]}}, {"type": "Feature", "properties": {"id": 80, "barrio": 3982}, "geometry": {"type": "Polygon", "coordinates": [[[-58.21803522447452, -26.17015019168401], [-58.21330333328623, -26.16859869885744], [-58.21491709150273, -26.16453703536366], [-58.21963653515773, -26.16607981317916], [-58.21803522447452, -26.17015019168401]]]}}, {"type": "Feature", "properties": {"id": 210, "barrio": 4024}, "geometry": {"type": "Polygon", "coordinates": [[[-58.2136463024435, -26.1249558906188], [-58.21168223807153, -26.12435353006658], [-58.21236072677773, -26.12252045800504], [-58.21553800418761, -26.12355798161135], [-58.21364630244351, -26.1249558906188]]]}}]}